SL-14 R/B               
1 21423U 91042B   26037.96568705  .00000509  00000+0  61371-4 0  9997
2 21423  82.4899 249.0002 0016691 347.1901  12.8886 14.81800289848520
ERS-1                   
1 21574U 91050A   26037.97324398  .00000469  00000+0  16469-3 0  9994
2 21574  98.7896  55.4354 0030958 294.2271  65.5681 14.39423988811312
ARIANE 40 R/B           
1 21610U 91050F   26037.75048915  .00000422  00000+0  13884-3 0  9996
2 21610  98.2077  91.1382 0003695 150.1441 209.9961 14.42870421814538
INTERCOSMOS 25          
1 21819U 91086A   26037.86188166  .00001154  00000+0  22376-3 0  9990
2 21819  82.6087 328.6369 1486681 183.3455 175.6722 12.11914456492957
SL-8 R/B                
1 21876U 92008B   26037.81898960  .00000066  00000+0  52188-4 0  9999
2 21876  82.9268 290.7435 0033735 219.4262 211.1769 13.75969577705174
SL-8 R/B                
1 21938U 92020B   26037.93481414  .00000142  00000+0  13167-3 0  9995
2 21938  82.9327 176.5892 0029408  26.0900  91.1263 13.75544791696902
USA 81                  
1 21949U 92023A   26037.92128344  .00000296  00000+0  10223-3 0  9999
2 21949  85.0119 149.1820 0002549 105.0087 255.1388 14.32356434 90384
COSMOS 2219             
1 22219U 92076A   26037.53753505 -.00000143  00000+0 -50027-4 0  9998
2 22219  71.0586  83.1949 0020430 250.0379 109.8543 14.14076896713977
SL-16 R/B               
1 22220U 92076B   26037.99408322  .00000175  00000+0  11120-3 0  9997
2 22220  70.9980 253.0344 0011610 150.9361 313.2514 14.16855234717483
COSMOS 2221             
1 22236U 92080A   26037.80542820  .00002902  00000+0  25573-3 0  9998
2 22236  82.5059 308.6586 0013007 300.9001  59.0941 14.96076383776179
SL-16 R/B               
1 22285U 92093B   26037.50325412 -.00000167  00000+0 -61228-4 0  9990
2 22285  71.0202  69.7371 0005097 326.2555  33.8243 14.15441314708742
COSMOS 2228             
1 22286U 92094A   26037.90880979  .00002931  00000+0  25128-3 0  9997
2 22286  82.5157 266.7858 0019200  48.5162 311.7704 14.97049156771453
