CCSDS_OMM_VERS = 2.0
CREATION_DATE  = 
ORIGINATOR     = 

OBJECT_NAME    = SL-14 R/B
OBJECT_ID      = 1991-042B
CENTER_NAME    = EARTH
REF_FRAME      = TEME
TIME_SYSTEM    = UTC
MEAN_ELEMENT_THEORY = SGP/SGP4

EPOCH          = 2026-02-06T23:10:35.361120
MEAN_MOTION    = 14.81800289
ECCENTRICITY   = .00166919
INCLINATION    = 82.4899
RA_OF_ASC_NODE = 249.0002
ARG_OF_PERICENTER = 347.1901
MEAN_ANOMALY   = 12.8886

EPHEMERIS_TYPE = 0
CLASSIFICATION_TYPE = U
NORAD_CAT_ID   = 21423
ELEMENT_SET_NO = 999
REV_AT_EPOCH   = 84852
BSTAR          = .61371245E-4
MEAN_MOTION_DOT = .509E-5
MEAN_MOTION_DDOT = 0

CCSDS_OMM_VERS = 2.0
CREATION_DATE  = 
ORIGINATOR     = 

OBJECT_NAME    = ERS-1
OBJECT_ID      = 1991-050A
CENTER_NAME    = EARTH
REF_FRAME      = TEME
TIME_SYSTEM    = UTC
MEAN_ELEMENT_THEORY = SGP/SGP4

EPOCH          = 2026-02-06T23:21:28.279872
MEAN_MOTION    = 14.39423988
ECCENTRICITY   = .00309581
INCLINATION    = 98.7896
RA_OF_ASC_NODE = 55.4354
ARG_OF_PERICENTER = 294.2271
MEAN_ANOMALY   = 65.5681

EPHEMERIS_TYPE = 0
CLASSIFICATION_TYPE = U
NORAD_CAT_ID   = 21574
ELEMENT_SET_NO = 999
REV_AT_EPOCH   = 81131
BSTAR          = .16468756E-3
MEAN_MOTION_DOT = .469E-5
MEAN_MOTION_DDOT = 0

CCSDS_OMM_VERS = 2.0
CREATION_DATE  = 
ORIGINATOR     = 

OBJECT_NAME    = ARIANE 40 R/B
OBJECT_ID      = 1991-050F
CENTER_NAME    = EARTH
REF_FRAME      = TEME
TIME_SYSTEM    = UTC
MEAN_ELEMENT_THEORY = SGP/SGP4

EPOCH          = 2026-02-06T18:00:42.262560
MEAN_MOTION    = 14.42870421
ECCENTRICITY   = .00036956
INCLINATION    = 98.2077
RA_OF_ASC_NODE = 91.1382
ARG_OF_PERICENTER = 150.1441
MEAN_ANOMALY   = 209.9961

EPHEMERIS_TYPE = 0
CLASSIFICATION_TYPE = U
NORAD_CAT_ID   = 21610
ELEMENT_SET_NO = 999
REV_AT_EPOCH   = 81453
BSTAR          = .13884142E-3
MEAN_MOTION_DOT = .422E-5
MEAN_MOTION_DDOT = 0

CCSDS_OMM_VERS = 2.0
CREATION_DATE  = 
ORIGINATOR     = 

OBJECT_NAME    = INTERCOSMOS 25
OBJECT_ID      = 1991-086A
CENTER_NAME    = EARTH
REF_FRAME      = TEME
TIME_SYSTEM    = UTC
MEAN_ELEMENT_THEORY = SGP/SGP4

EPOCH          = 2026-02-06T20:41:06.575424
MEAN_MOTION    = 12.11914456
ECCENTRICITY   = .14866817
INCLINATION    = 82.6087
RA_OF_ASC_NODE = 328.6369
ARG_OF_PERICENTER = 183.3455
MEAN_ANOMALY   = 175.6722

EPHEMERIS_TYPE = 0
CLASSIFICATION_TYPE = U
NORAD_CAT_ID   = 21819
ELEMENT_SET_NO = 999
REV_AT_EPOCH   = 49295
BSTAR          = .22375692E-3
MEAN_MOTION_DOT = .1154E-4
MEAN_MOTION_DDOT = 0

CCSDS_OMM_VERS = 2.0
CREATION_DATE  = 
ORIGINATOR     = 

OBJECT_NAME    = SL-8 R/B
OBJECT_ID      = 1992-008B
CENTER_NAME    = EARTH
REF_FRAME      = TEME
TIME_SYSTEM    = UTC
MEAN_ELEMENT_THEORY = SGP/SGP4

EPOCH          = 2026-02-06T19:39:20.701440
MEAN_MOTION    = 13.75969577
ECCENTRICITY   = .00337355
INCLINATION    = 82.9268
RA_OF_ASC_NODE = 290.7435
ARG_OF_PERICENTER = 219.4262
MEAN_ANOMALY   = 211.1769

EPHEMERIS_TYPE = 0
CLASSIFICATION_TYPE = U
NORAD_CAT_ID   = 21876
ELEMENT_SET_NO = 999
REV_AT_EPOCH   = 70517
BSTAR          = .52188068E-4
MEAN_MOTION_DOT = .66E-6
MEAN_MOTION_DDOT = 0

CCSDS_OMM_VERS = 2.0
CREATION_DATE  = 
ORIGINATOR     = 

OBJECT_NAME    = SL-8 R/B
OBJECT_ID      = 1992-020B
CENTER_NAME    = EARTH
REF_FRAME      = TEME
TIME_SYSTEM    = UTC
MEAN_ELEMENT_THEORY = SGP/SGP4

EPOCH          = 2026-02-06T22:26:07.941696
MEAN_MOTION    = 13.75544791
ECCENTRICITY   = .00294082
INCLINATION    = 82.9327
RA_OF_ASC_NODE = 176.5892
ARG_OF_PERICENTER = 26.0900
MEAN_ANOMALY   = 91.1263

EPHEMERIS_TYPE = 0
CLASSIFICATION_TYPE = U
NORAD_CAT_ID   = 21938
ELEMENT_SET_NO = 999
REV_AT_EPOCH   = 69690
BSTAR          = .13167292E-3
MEAN_MOTION_DOT = .142E-5
MEAN_MOTION_DDOT = 0

CCSDS_OMM_VERS = 2.0
CREATION_DATE  = 
ORIGINATOR     = 

OBJECT_NAME    = USA 81
OBJECT_ID      = 1992-023A
CENTER_NAME    = EARTH
REF_FRAME      = TEME
TIME_SYSTEM    = UTC
MEAN_ELEMENT_THEORY = SGP/SGP4

EPOCH          = 2026-02-06T22:06:38.889216
MEAN_MOTION    = 14.32356434
ECCENTRICITY   = .0002549
INCLINATION    = 85.0119
RA_OF_ASC_NODE = 149.1820
ARG_OF_PERICENTER = 105.0087
MEAN_ANOMALY   = 255.1388

EPHEMERIS_TYPE = 0
CLASSIFICATION_TYPE = U
NORAD_CAT_ID   = 21949
ELEMENT_SET_NO = 999
REV_AT_EPOCH   = 9038
BSTAR          = .10223058E-3
MEAN_MOTION_DOT = .296E-5
MEAN_MOTION_DDOT = 0

CCSDS_OMM_VERS = 2.0
CREATION_DATE  = 
ORIGINATOR     = 

OBJECT_NAME    = COSMOS 2219
OBJECT_ID      = 1992-076A
CENTER_NAME    = EARTH
REF_FRAME      = TEME
TIME_SYSTEM    = UTC
MEAN_ELEMENT_THEORY = SGP/SGP4

EPOCH          = 2026-02-06T12:54:03.028320
MEAN_MOTION    = 14.14076896
ECCENTRICITY   = .002043
INCLINATION    = 71.0586
RA_OF_ASC_NODE = 83.1949
ARG_OF_PERICENTER = 250.0379
MEAN_ANOMALY   = 109.8543

EPHEMERIS_TYPE = 0
CLASSIFICATION_TYPE = U
NORAD_CAT_ID   = 22219
ELEMENT_SET_NO = 999
REV_AT_EPOCH   = 71397
BSTAR          = -.50027E-4
MEAN_MOTION_DOT = -.143E-5
MEAN_MOTION_DDOT = 0

CCSDS_OMM_VERS = 2.0
CREATION_DATE  = 
ORIGINATOR     = 

OBJECT_NAME    = SL-16 R/B
OBJECT_ID      = 1992-076B
CENTER_NAME    = EARTH
REF_FRAME      = TEME
TIME_SYSTEM    = UTC
MEAN_ELEMENT_THEORY = SGP/SGP4

EPOCH          = 2026-02-06T23:51:28.790208
MEAN_MOTION    = 14.16855234
ECCENTRICITY   = .001161
INCLINATION    = 70.9980
RA_OF_ASC_NODE = 253.0344
ARG_OF_PERICENTER = 150.9361
MEAN_ANOMALY   = 313.2514

EPHEMERIS_TYPE = 0
CLASSIFICATION_TYPE = U
NORAD_CAT_ID   = 22220
ELEMENT_SET_NO = 999
REV_AT_EPOCH   = 71748
BSTAR          = .11120482E-3
MEAN_MOTION_DOT = .175E-5
MEAN_MOTION_DDOT = 0

CCSDS_OMM_VERS = 2.0
CREATION_DATE  = 
ORIGINATOR     = 

OBJECT_NAME    = COSMOS 2221
OBJECT_ID      = 1992-080A
CENTER_NAME    = EARTH
REF_FRAME      = TEME
TIME_SYSTEM    = UTC
MEAN_ELEMENT_THEORY = SGP/SGP4

EPOCH          = 2026-02-06T19:19:48.996480
MEAN_MOTION    = 14.96076383
ECCENTRICITY   = .00130076
INCLINATION    = 82.5059
RA_OF_ASC_NODE = 308.6586
ARG_OF_PERICENTER = 300.9001
MEAN_ANOMALY   = 59.0941

EPHEMERIS_TYPE = 0
CLASSIFICATION_TYPE = U
NORAD_CAT_ID   = 22236
ELEMENT_SET_NO = 999
REV_AT_EPOCH   = 77617
BSTAR          = .25573345E-3
MEAN_MOTION_DOT = .2902E-4
MEAN_MOTION_DDOT = 0

CCSDS_OMM_VERS = 2.0
CREATION_DATE  = 
ORIGINATOR     = 

OBJECT_NAME    = SL-16 R/B
OBJECT_ID      = 1992-093B
CENTER_NAME    = EARTH
REF_FRAME      = TEME
TIME_SYSTEM    = UTC
MEAN_ELEMENT_THEORY = SGP/SGP4

EPOCH          = 2026-02-06T12:04:41.155968
MEAN_MOTION    = 14.15441314
ECCENTRICITY   = .00050978
INCLINATION    = 71.0202
RA_OF_ASC_NODE = 69.7371
ARG_OF_PERICENTER = 326.2555
MEAN_ANOMALY   = 33.8243

EPHEMERIS_TYPE = 0
CLASSIFICATION_TYPE = U
NORAD_CAT_ID   = 22285
ELEMENT_SET_NO = 999
REV_AT_EPOCH   = 70874
BSTAR          = -.61228126E-4
MEAN_MOTION_DOT = -.167E-5
MEAN_MOTION_DDOT = 0

CCSDS_OMM_VERS = 2.0
CREATION_DATE  = 
ORIGINATOR     = 

OBJECT_NAME    = COSMOS 2228
OBJECT_ID      = 1992-094A
CENTER_NAME    = EARTH
REF_FRAME      = TEME
TIME_SYSTEM    = UTC
MEAN_ELEMENT_THEORY = SGP/SGP4

EPOCH          = 2026-02-06T21:48:41.165856
MEAN_MOTION    = 14.97049156
ECCENTRICITY   = .00192005
INCLINATION    = 82.5157
RA_OF_ASC_NODE = 266.7858
ARG_OF_PERICENTER = 48.5162
MEAN_ANOMALY   = 311.7704

EPHEMERIS_TYPE = 0
CLASSIFICATION_TYPE = U
NORAD_CAT_ID   = 22286
ELEMENT_SET_NO = 999
REV_AT_EPOCH   = 77145
BSTAR          = .2512803E-3
MEAN_MOTION_DOT = .2931E-4
MEAN_MOTION_DDOT = 0

